ORBCOMM FM05 [-]        
1 25117U 97084F   24096.84218379  .00001489  00000+0  48856-3 0  9992
2 25117  45.0160 302.2160 0002825 182.0662 178.0177 14.42441300377382
ORBCOMM FM06 [+]        
1 25118U 97084G   24096.87349966  .00001624  00000+0  52872-3 0  9997
2 25118  45.0144 302.2438 0002085 191.8109 181.3521 14.42457904378305
ORBCOMM FM07 [-]        
1 25119U 97084H   24096.92966069  .00001427  00000+0  47050-3 0  9996
2 25119  45.0140 302.4933 0003560 172.4969 187.5935 14.42380218378302
ORBCOMM FM03 [-]        
1 25158U 98007B   24096.87281429  .00000966  00000+0  40314-3 0  9992
2 25158 107.9776 318.8344 0048978 291.7662  67.8268 14.32006726361525
ORBCOMM FM04 [+]        
1 25159U 98007C   24096.58831261  .00000933  00000+0  39010-3 0  9991
2 25159 107.9758 321.1661 0044533 290.1325  69.5025 14.32263420361512
ORBCOMM FM17 [-]        
1 25413U 98046A   24096.21692790  .00000912  00000+0  38124-3 0  9991
2 25413  44.9936 161.2166 0003350 214.7216 145.3412 14.32981278340304
ORBCOMM FM18 [-]        
1 25414U 98046B   24096.69610838  .00001321  00000+0  50183-3 0  9991
2 25414  44.9938  86.7872 0005440 258.3680 101.6557 14.35685509341311
ORBCOMM FM19 [+]        
1 25415U 98046C   24096.69111988  .00001315  00000+0  50148-3 0  9998
2 25415  44.9947  88.1762 0004202 257.0416 273.1089 14.35519677341276
